NORAD_CAT_ID,OBJECT_NAME,OBJECT_TYPE,EPOCH,MEAN_MOTION,ECCENTRICITY,INCLINATION,RA_OF_ASC_NODE,ARG_OF_PERICENTER,MEAN_ANOMALY,BSTAR,MEAN_MOTION_DOT,MEAN_MOTION_DDOT,TLE_LINE0,TLE_LINE1,TLE_LINE2,SEMIMAJOR_AXIS,PERIOD,APOGEE,PERIGEE,DECAYED
52280.0,STARLINK-3764,PAYLOAD,2024-01-11 08:00:26,15.08834278,0.000172,53.218,48.19,110.6921,249.4256,2.7875e-05,1.56e-06,0.0,0 STARLINK-3764,1 52280U 22041V   24011.33363499  .00000156  00000-0  27875-4 0  9999,2 52280  53.2180  48.1900 0001720 110.6921 249.4256 15.08834278 95350,6917.898,95.438,540.953,538.573,0.0
52280.0,STARLINK-3764,PAYLOAD,2024-01-12 09:26:36,15.08836556,0.0001433,53.2174,43.4318,76.6627,283.4525,3.6625e-05,2.95e-06,0.0,0 STARLINK-3764,1 52280U 22041V   24012.39347797  .00000295  00000-0  36625-4 0  9996,2 52280  53.2174  43.4318 0001433  76.6627 283.4525 15.08836556 96730,6917.891,95.438,540.747,538.765,0.0
52280.0,STARLINK-3764,PAYLOAD,2024-01-13 09:17:23,15.08840314,0.0001547,53.218,38.9714,92.2316,267.8853,9.038e-05,1.151e-05,0.0,0 STARLINK-3764,1 52280U 22041V   24013.38707634  .00001151  00000-0  90380-4 0  9996,2 52280  53.2180  38.9714 0001547  92.2316 267.8853 15.08840314 95669,6917.879,95.438,540.815,538.674,0.0
52280.0,STARLINK-3764,PAYLOAD,2024-01-13 23:35:52,15.08834562,0.000146,53.2172,36.2948,84.9581,275.1578,5.693e-05,6.18e-06,0.0,0 STARLINK-3764,1 52280U 22041V   24013.98324202  .00000618  00000-0  56930-4 0  9998,2 52280  53.2172  36.2948 0001460  84.9581 275.1578 15.08834562 96975,6917.897,95.438,540.772,538.752,0.0
52280.0,STARLINK-3764,PAYLOAD,2024-01-14 07:32:47,15.08836355,0.0001527,53.2176,34.8069,100.5026,259.6138,7.4696e-05,9.01e-06,0.0,0 STARLINK-3764,1 52280U 22041V   24014.31444050  .00000901  00000-0  74696-4 0  9994,2 52280  53.2176  34.8069 0001527 100.5026 259.6138 15.08836355 95802,6917.892,95.438,540.813,538.7,0.0
52280.0,STARLINK-3764,PAYLOAD,2024-01-15 10:34:19,15.08857997,0.0001672,53.2188,29.7526,108.7716,251.3458,0.0001613,2.281e-05,0.0,0 STARLINK-3764,1 52280U 22041V   24015.44050416  .00002281  00000-0  16130-3 0  9999,2 52280  53.2188  29.7526 0001672 108.7716 251.3458 15.08857997 97196,6917.825,95.436,540.847,538.534,0.0
52280.0,STARLINK-3764,PAYLOAD,2024-01-16 00:52:49,15.08833177,0.0001817,53.2186,27.0758,111.8035,248.3151,1.5442e-07,-2.86e-06,0.0,0 STARLINK-3764,1 52280U 22041V   24016.03668384 -.00000286  00000-0  15442-6 0  9996,2 52280  53.2186  27.0758 0001817 111.8035 248.3151 15.08833177 97282,6917.901,95.438,541.023,538.509,0.0
52280.0,STARLINK-3764,PAYLOAD,2024-01-16 10:25:08,15.0883683,0.0001654,53.219,25.2896,111.9748,248.142,3.4805e-05,2.66e-06,0.0,0 STARLINK-3764,1 52280U 22041V   24016.43412188  .00000266  00000-0  34805-4 0  9998,2 52280  53.2190  25.2896 0001654 111.9748 248.1420 15.08836830 96129,6917.89,95.438,540.899,538.611,0.0
52280.0,STARLINK-3764,PAYLOAD,2024-01-17 03:54:22,15.0884265,0.0001773,53.2192,22.0174,122.9136,237.2027,-0.0001133,-2.091e-05,0.0,0 STARLINK-3764,1 52280U 22041V   24017.16276391 -.00002091  00000-0 -11330-3 0  9990,2 52280  53.2192  22.0174 0001773 122.9136 237.2027 15.08842650 97456,6917.872,95.437,540.964,538.511,0.0
52280.0,STARLINK-3764,PAYLOAD,2024-01-17 05:29:46,15.08841689,0.0002054,53.219,21.7193,140.5083,219.6059,-0.000156,-2.77e-05,0.0,0 STARLINK-3764,1 52280U 22041V   24017.22900517 -.00002770  00000-0 -15600-3 0  9999,2 52280  53.2190  21.7193 0002054 140.5083 219.6059 15.08841689 96247,6917.875,95.437,541.161,538.319,0.0
52280.0,STARLINK-3764,PAYLOAD,2024-01-18 10:06:41,15.08849302,0.000161,53.2174,16.3669,112.1272,247.9891,0.00012425,1.69e-05,0.0,0 STARLINK-3764,1 52280U 22041V   24018.42131749  .00001690  00000-0  12425-3 0  9995,2 52280  53.2174  16.3669 0001610 112.1272 247.9891 15.08849302 97642,6917.852,95.437,540.831,538.603,0.0
52280.0,STARLINK-3764,PAYLOAD,2024-01-19 03:35:56,15.08841408,0.0001531,53.2169,13.0911,109.2636,250.8522,0.00011974,1.618e-05,0.0,0 STARLINK-3764,1 52280U 22041V   24019.14996250  .00001618  00000-0  11974-3 0  9999,2 52280  53.2169  13.0911 0001531 109.2636 250.8522 15.08841408 97758,6917.876,95.437,540.8,538.682,0.0
52280.0,STARLINK-3764,PAYLOAD,2024-01-19 08:22:05,15.0884756,0.0001433,53.2183,12.1985,96.2955,263.82,0.00016765,2.382e-05,0.0,0 STARLINK-3764,1 52280U 22041V   24019.34867974  .00002382  00000-0  16765-3 0  9993,2 52280  53.2183  12.1985 0001433  96.2955 263.8200 15.08847560 96565,6917.857,95.437,540.714,538.731,0.0
52280.0,STARLINK-3764,PAYLOAD,2024-01-20 03:26:44,15.08844332,0.0001412,53.2181,8.6349,91.281,268.8344,-1.4619e-05,-5.21e-06,0.0,0 STARLINK-3764,1 52280U 22041V   24020.14356685 -.00000521  00000-0 -14619-4 0  9997,2 52280  53.2181   8.6349 0001412  91.2810 268.8344 15.08844332 97906,6917.867,95.437,540.709,538.755,0.0
52280.0,STARLINK-3764,PAYLOAD,2024-01-20 08:12:53,15.0884732,0.0001416,53.2183,7.7441,94.0924,266.023,1.1613e-05,-1.03e-06,0.0,0 STARLINK-3764,1 52280U 22041V   24020.34228383 -.00000103  00000-0  11613-4 0  9998,2 52280  53.2183   7.7441 0001416  94.0924 266.0230 15.08847320 96714,6917.858,95.437,540.703,538.743,0.0
52280.0,STARLINK-3764,PAYLOAD,2024-01-20 22:31:22,15.08835174,0.0001476,53.218,5.0743,99.5588,260.5571,5.3918e-05,5.7e-06,0.0,0 STARLINK-3764,1 52280U 22041V   24020.93845087  .00000570  00000-0  53918-4 0  9990,2 52280  53.2180   5.0743 0001476  99.5588 260.5571 15.08835174 96800,6917.895,95.438,540.781,538.739,0.0
52280.0,STARLINK-3764,PAYLOAD,2024-01-21 06:28:17,15.0884465,0.0001478,53.2191,3.5847,95.4664,264.6497,5.1838e-05,5.37e-06,0.0,0 STARLINK-3764,1 52280U 22041V   24021.26964625  .00000537  00000-0  51838-4 0  9999,2 52280  53.2191   3.5847 0001478  95.4664 264.6497 15.08844650 96858,6917.866,95.437,540.754,538.709,0.0
52280.0,STARLINK-3764,PAYLOAD,2024-01-21 08:03:40,15.08848202,0.0001497,53.2185,3.2862,98.7499,261.3663,8.1378e-05,1.008e-05,0.0,0 STARLINK-3764,1 52280U 22041V   24021.33588288  .00001008  00000-0  81378-4 0  9990,2 52280  53.2185   3.2862 0001497  98.7499 261.3663 15.08848202 98081,6917.855,95.437,540.756,538.685,0.0
52280.0,STARLINK-3764,PAYLOAD,2024-01-21 22:22:09,15.08839091,0.0001571,53.219,0.6104,80.9427,279.1743,4.5308e-05,4.33e-06,0.0,0 STARLINK-3764,1 52280U 22041V   24021.93204921  .00000433  00000-0  45308-4 0  9999,2 52280  53.2190   0.6104 0001571  80.9427 279.1743 15.08839091 96950,6917.883,95.438,540.835,538.661,0.0
52280.0,STARLINK-3764,PAYLOAD,2024-01-22 04:43:40,15.08848511,0.0001549,53.2184,359.4201,105.0266,255.0898,0.00014101,1.957e-05,0.0,0 STARLINK-3764,1 52280U 22041V   24022.19700054  .00001957  00000-0  14101-3 0  9994,2 52280  53.2184 359.4201 0001549 105.0266 255.0898 15.08848511 96996,6917.854,95.437,540.791,538.648,0.0
52280.0,STARLINK-3764,PAYLOAD,2024-01-22 07:54:26,15.08852269,0.0001568,53.2184,358.8247,107.4556,252.6607,0.00017441,2.49e-05,0.0,0 STARLINK-3764,1 52280U 22041V   24022.32947710  .00002490  00000-0  17441-3 0  9994,2 52280  53.2184 358.8247 0001568 107.4556 252.6607 15.08852269 97018,6917.843,95.437,540.793,538.623,0.0
52280.0,STARLINK-3764,PAYLOAD,2024-01-23 02:59:06,15.08778424,0.0002547,53.2203,355.2558,126.935,233.1876,0.00086702,0.00013515,0.0,0 STARLINK-3764,1 52280U 22041V   24023.12438617  .00013515  00000-0  86702-3 0  9990,2 52280  53.2203 355.2558 0002547 126.9350 233.1876 15.08778424 98352,6918.069,95.441,541.696,538.172,0.0
52280.0,STARLINK-3764,PAYLOAD,2024-01-23 04:34:28,15.08838956,0.0001582,53.2192,354.9615,101.2559,258.8611,5.8819e-05,6.48e-06,0.0,0 STARLINK-3764,1 52280U 22041V   24023.19061140  .00000648  00000-0  58819-4 0  9992,2 52280  53.2192 354.9615 0001582 101.2559 258.8611 15.08838956 98363,6917.884,95.438,540.843,538.654,0.0
52280.0,STARLINK-3764,PAYLOAD,2024-01-24 04:25:15,15.08843109,0.000162,53.2198,350.5015,106.4193,253.6978,3.7106e-05,3.03e-06,0.0,0 STARLINK-3764,1 52280U 22041V   24024.18421166  .00000303  00000-0  37106-4 0  9994,2 52280  53.2198 350.5015 0001620 106.4193 253.6978 15.08843109 97295,6917.871,95.437,540.857,538.615,0.0
52280.0,STARLINK-3764,PAYLOAD,2024-01-25 02:40:39,15.08844266,0.0001599,53.2198,346.3351,102.1415,257.9757,0.00011978,1.619e-05,0.0,0 STARLINK-3764,1 52280U 22041V   24025.11157036  .00001619  00000-0  11978-3 0  9999,2 52280  53.2198 346.3351 0001599 102.1415 257.9757 15.08844266 98654,6917.867,95.437,540.839,538.626,0.0
52280.0,STARLINK-3764,PAYLOAD,2024-01-25 04:16:03,15.08807552,0.0001938,53.2206,346.039,108.3587,251.7616,0.00076299,0.00011865,0.0,0 STARLINK-3764,1 52280U 22041V   24025.17782070  .00011865  00000-0  76299-3 0  9998,2 52280  53.2206 346.0390 0001938 108.3587 251.7616 15.08807552 98663,6917.98,95.44,541.185,538.504,0.0
52280.0,STARLINK-3764,PAYLOAD,2024-01-26 02:31:27,15.08840476,0.0001743,53.2207,341.8791,113.6731,246.4444,8.6346e-05,1.086e-05,0.0,0 STARLINK-3764,1 52280U 22041V   24026.10517413  .00001086  00000-0  86346-4 0  9998,2 52280  53.2207 341.8791 0001743 113.6731 246.4444 15.08840476 98804,6917.879,95.438,540.95,538.538,0.0
52280.0,STARLINK-3764,PAYLOAD,2024-01-27 03:57:36,15.08829586,0.0001546,53.2188,337.1222,80.6228,279.4939,-0.00038139,-6.351e-05,0.0,0 STARLINK-3764,1 52280U 22041V   24027.16500507 -.00006351  00000-0 -38139-3 0  9999,2 52280  53.2188 337.1222 0001546  80.6228 279.4939 15.08829586 98965,6917.912,95.438,540.847,538.708,0.0
52280.0,STARLINK-3764,PAYLOAD,2024-01-27 07:08:22,15.08835837,0.0001522,53.2184,336.5248,95.0488,265.0678,-0.00027643,-4.684e-05,0.0,0 STARLINK-3764,1 52280U 22041V   24027.29748067 -.00004684  00000-0 -27643-3 0  9993,2 52280  53.2184 336.5248 0001522  95.0488 265.0678 15.08835837 98983,6917.893,95.438,540.811,538.705,0.0
52280.0,STARLINK-3764,PAYLOAD,2024-01-28 03:48:24,15.08825859,0.0001762,53.2195,332.656,75.7644,284.3543,-0.00019874,-3.448e-05,0.0,0 STARLINK-3764,1 52280U 22041V   24028.15861747 -.00003448  00000-0 -19874-3 0  9994,2 52280  53.2195 332.6560 0001762  75.7644 284.3543 15.08825859 99118,6917.924,95.438,541.008,538.57,0.0
